STRIX-1                 
1 53815U 22113A   26186.24585021  .00030755  00000+0  75408-3 0  9997
2 53815  97.4478 248.6003 0005001 157.9102 202.2360 15.40657904210220
STRIX-3                 
1 59224U 24047A   26186.28770339  .00012627  00000+0  59297-3 0  9993
2 59224  97.6633 162.2334 0013202   9.6322 350.5163 15.19692318127490
STRIX-4                 
1 60352U 24137A   26186.33471353  .00017475  00000+0  54042-3 0  9996
2 60352  43.0140 181.7197 0016078  61.7054 298.5420 15.33096569106801
STRIX-2                 
1 62406U 24248A   26186.30858142  .00008105  00000+0  51387-3 0  9992
2 62406  97.6292 141.8458 0013634 274.0019  85.9651 15.09114634 84321
STRIX-5                 
1 65971U 25229A   26186.09371541  .00004300  00000+0  31067-3 0  9997
2 65971  41.9264 188.0931 0036587 172.1469 187.9937 15.04545225 39677
STRIX-6                 
1 68291U 26056A   26186.17851188  .00005086  00000+0  42077-3 0  9998
2 68291  50.2823 264.7435 0016555 312.8674  47.0885 15.00295865 15977
STRIX-7                 
1 69177U 26112A   26186.20258364  .00007054  00000+0  55051-3 0  9999
2 69177  44.9069  97.8219 0023542 152.0319 208.1823 15.01555222  6588
STRIX-8                 
1 69701U 26146A   26186.12744110  .00008072  00000+0  58111-3 0  9990
2 69701  41.9893  68.8620 0008766 318.4582  41.5578 15.04372169  1264
