{"fetched_at":"2026-07-05T12:48:47.564Z","source":"https://celestrak.org/NORAD/elements/gp.php?NAME=STRIX&FORMAT=JSON","constellation":"synspective","records":[{"OBJECT_NAME":"STRIX-1","OBJECT_ID":"2022-113A","EPOCH":"2026-07-05T05:54:01.458144","CLASSIFICATION_TYPE":"U","MEAN_MOTION":15.40657904,"ECCENTRICITY":0.00050013,"INCLINATION":97.4478,"RA_OF_ASC_NODE":248.6003,"ARG_OF_PERICENTER":157.9102,"MEAN_ANOMALY":202.236,"EPHEMERIS_TYPE":0,"NORAD_CAT_ID":53815,"ELEMENT_SET_NO":999,"REV_AT_EPOCH":21022,"BSTAR":0.00075408349,"MEAN_MOTION_DOT":0.00030755,"MEAN_MOTION_DDOT":0},{"OBJECT_NAME":"STRIX-3","OBJECT_ID":"2024-047A","EPOCH":"2026-07-05T06:54:17.572896","CLASSIFICATION_TYPE":"U","MEAN_MOTION":15.19692318,"ECCENTRICITY":0.0013202,"INCLINATION":97.6633,"RA_OF_ASC_NODE":162.2334,"ARG_OF_PERICENTER":9.6322,"MEAN_ANOMALY":350.5163,"EPHEMERIS_TYPE":0,"NORAD_CAT_ID":59224,"ELEMENT_SET_NO":999,"REV_AT_EPOCH":12749,"BSTAR":0.00059296682,"MEAN_MOTION_DOT":0.00012627,"MEAN_MOTION_DDOT":0},{"OBJECT_NAME":"STRIX-4","OBJECT_ID":"2024-137A","EPOCH":"2026-07-05T08:01:59.248992","CLASSIFICATION_TYPE":"U","MEAN_MOTION":15.33096569,"ECCENTRICITY":0.00160789,"INCLINATION":43.014,"RA_OF_ASC_NODE":181.7197,"ARG_OF_PERICENTER":61.7054,"MEAN_ANOMALY":298.542,"EPHEMERIS_TYPE":0,"NORAD_CAT_ID":60352,"ELEMENT_SET_NO":999,"REV_AT_EPOCH":10680,"BSTAR":0.00054041836,"MEAN_MOTION_DOT":0.00017475,"MEAN_MOTION_DDOT":0},{"OBJECT_NAME":"STRIX-2","OBJECT_ID":"2024-248A","EPOCH":"2026-07-05T07:24:21.434688","CLASSIFICATION_TYPE":"U","MEAN_MOTION":15.09114634,"ECCENTRICITY":0.00136347,"INCLINATION":97.6292,"RA_OF_ASC_NODE":141.8458,"ARG_OF_PERICENTER":274.0019,"MEAN_ANOMALY":85.9651,"EPHEMERIS_TYPE":0,"NORAD_CAT_ID":62406,"ELEMENT_SET_NO":999,"REV_AT_EPOCH":8432,"BSTAR":0.00051386773,"MEAN_MOTION_DOT":0.00008105,"MEAN_MOTION_DDOT":0},{"OBJECT_NAME":"STRIX-5","OBJECT_ID":"2025-229A","EPOCH":"2026-07-05T02:14:57.011424","CLASSIFICATION_TYPE":"U","MEAN_MOTION":15.04545225,"ECCENTRICITY":0.00365875,"INCLINATION":41.9264,"RA_OF_ASC_NODE":188.0931,"ARG_OF_PERICENTER":172.1469,"MEAN_ANOMALY":187.9937,"EPHEMERIS_TYPE":0,"NORAD_CAT_ID":65971,"ELEMENT_SET_NO":999,"REV_AT_EPOCH":3967,"BSTAR":0.00031067346,"MEAN_MOTION_DOT":0.000043,"MEAN_MOTION_DDOT":0},{"OBJECT_NAME":"STRIX-6","OBJECT_ID":"2026-056A","EPOCH":"2026-07-05T04:17:03.426432","CLASSIFICATION_TYPE":"U","MEAN_MOTION":15.00295865,"ECCENTRICITY":0.00165559,"INCLINATION":50.2823,"RA_OF_ASC_NODE":264.7435,"ARG_OF_PERICENTER":312.8674,"MEAN_ANOMALY":47.0885,"EPHEMERIS_TYPE":0,"NORAD_CAT_ID":68291,"ELEMENT_SET_NO":999,"REV_AT_EPOCH":1597,"BSTAR":0.00042076875,"MEAN_MOTION_DOT":0.00005086,"MEAN_MOTION_DDOT":0},{"OBJECT_NAME":"STRIX-7","OBJECT_ID":"2026-112A","EPOCH":"2026-07-05T04:51:43.226496","CLASSIFICATION_TYPE":"U","MEAN_MOTION":15.01555222,"ECCENTRICITY":0.0023542,"INCLINATION":44.9069,"RA_OF_ASC_NODE":97.8219,"ARG_OF_PERICENTER":152.0319,"MEAN_ANOMALY":208.1823,"EPHEMERIS_TYPE":0,"NORAD_CAT_ID":69177,"ELEMENT_SET_NO":999,"REV_AT_EPOCH":658,"BSTAR":0.00055050645,"MEAN_MOTION_DOT":0.00007054,"MEAN_MOTION_DDOT":0},{"OBJECT_NAME":"STRIX-8","OBJECT_ID":"2026-146A","EPOCH":"2026-07-05T03:03:30.911040","CLASSIFICATION_TYPE":"U","MEAN_MOTION":15.04372169,"ECCENTRICITY":0.00087669,"INCLINATION":41.9893,"RA_OF_ASC_NODE":68.862,"ARG_OF_PERICENTER":318.4582,"MEAN_ANOMALY":41.5578,"EPHEMERIS_TYPE":0,"NORAD_CAT_ID":69701,"ELEMENT_SET_NO":999,"REV_AT_EPOCH":126,"BSTAR":0.00058111172,"MEAN_MOTION_DOT":0.00008072,"MEAN_MOTION_DDOT":0}]}
